RTU MIREA 1 (RS51S)     
1 61785U 24199BC  26095.60651935  .00053868  00000+0  82261-3 0  9990
2 61785  97.3054 330.5992 0010190 174.9245 185.2114 15.54204585123176
TEVEL2-4                
1 63213U 25052D   26095.61335182  .00023752  00000+0  76597-3 0  9995
2 63213  97.3981 351.9940 0003479  45.2437 314.9087 15.32153971 58993
TEVEL2-5                
1 63214U 25052E   26095.43061585  .00024901  00000+0  80641-3 0  9991
2 63214  97.3979 351.7782 0003526  46.0445 314.1087 15.32008857 58965
TEVEL2-6                
1 63215U 25052F   26095.24519453  .00024751  00000+0  80278-3 0  9992
2 63215  97.3982 351.5785 0003591  45.4541 314.6993 15.31959995 58938
TEVEL2-1                
1 63217U 25052H   26095.44698236  .00024896  00000+0  81864-3 0  9995
2 63217  97.3955 351.4849 0004087  53.3737 306.7880 15.31515515 58951
TEVEL2-3                
1 63218U 25052J   26095.44389382  .00024922  00000+0  81842-3 0  9991
2 63218  97.3958 351.4958 0004128  54.0043 306.1581 15.31557154 58957
TEVEL2-2                
1 63219U 25052K   26095.44758707  .00024765  00000+0  81426-3 0  9996
2 63219  97.3956 351.4866 0004078  53.7400 306.4218 15.31519914 58953
TEVEL2-9                
1 63237U 25052AD  26094.94328454  .00021003  00000+0  73068-3 0  9997
2 63237  97.4021 350.5057 0007819  54.2343 305.9623 15.29701759 58824
TEVEL2-7                
1 63238U 25052AE  26095.23318365  .00021619  00000+0  75714-3 0  9994
2 63238  97.4020 350.7381 0007953  53.7009 306.4964 15.29477036 58864
TEVEL2-8                
1 63239U 25052AF  26095.24057536  .00021953  00000+0  76924-3 0  9991
2 63239  97.4020 350.7250 0007948  54.4340 305.7640 15.29456427 58864
HADES-ICM               
1 63492U 25052BN  26095.16836670  .00274628  00000+0  25045-2 0  9993
2 63492  97.3880 356.7473 0006118  76.3003 283.8939 15.67014218 59271
INNOSAT 16 (RS92S7)     
1 64878U 25155C   26095.56424284  .00009552  00000+0  38899-3 0  9998
2 64878  97.4513  62.9981 0012648  83.4030 276.8647 15.24629186 69603
GEOSCAN 6 (RS92S6)      
1 64879U 25155D   26095.55906164  .00014600  00000+0  52421-3 0  9997
2 64879  97.4510  63.9367 0010132  78.9146 281.3232 15.28729809 69667
GEOSCAN 1 (RS92S1)      
1 64880U 25155E   26095.58696676  .00016823  00000+0  59470-3 0  9996
2 64880  97.4507  64.0560 0010077  79.1697 281.0677 15.29208685 69670
239ALFEROV (RS61S)      
1 64881U 25155F   26095.58409776  .00020029  00000+0  67039-3 0  9993
2 64881  97.4511  64.3950 0009782  79.2080 281.0262 15.30949690 69692
GEOSCAN 2 (RS92S2)      
1 64890U 25155Q   26095.59404578  .00016684  00000+0  58460-3 0  9999
2 64890  97.4505  64.1855 0009212  69.0725 291.1500 15.29506698 69689
GEOSCAN 5 (RS92S5)      
1 64891U 25155R   26095.58842604  .00021345  00000+0  70702-3 0  9998
2 64891  97.4504  64.5087 0008704  84.8739 275.3496 15.31284467 69706
GEOSCAN 4 (RS92S4)      
1 64892U 25155S   26095.57890705  .00021549  00000+0  71116-3 0  9999
2 64892  97.4507  64.5293 0008770  85.3405 274.8838 15.31399474 69707
GEOSCAN 3 (RS92S3)      
1 64893U 25155T   26095.59723637  .00026669  00000+0  83806-3 0  9998
2 64893  97.4497  64.7936 0008524  86.9419 273.2798 15.32930379 69727
INNOSAT 3 (RS92S0)      
1 64894U 25155U   26095.59952771  .00045951  00000+0  11872-2 0  9990
2 64894  97.4461  65.6592 0008395  88.4288 271.7918 15.38949322 69781
KNACKSAT-2              
1 67683U 98067XZ  26095.56173917  .00046448  00000+0  70083-3 0  9997
2 67683  51.6318 298.1018 0010817 285.0563  74.9230 15.54221784  8968
